ORBCOMM FM115           
1 41186U 15081H   24293.16506521  .00005075  00000+0  10482-2 0  9994
2 41186  46.9969 105.0741 0000521 284.1917  75.8912 14.61456733472503
ORBCOMM FM108           
1 41187U 15081J   24293.05652220  .00004417  00000+0  10038-2 0  9997
2 41187  47.0030 165.0569 0002548 264.6257  95.4337 14.57258810471699
ORBCOMM FM117           
1 41188U 15081K   24293.02273698  .00004358  00000+0  99099-3 0  9992
2 41188  46.9989 164.0589 0003098 281.3635  78.6902 14.57259552471706
ORBCOMM FM116           
1 41189U 15081L   24293.14947637  .00004764  00000+0  10797-2 0  9995
2 41189  47.0008 253.2964 0002321   2.7643 357.3254 14.57260915470555
